{
  "type": "FeatureCollection",
  "features": [
    {
      "type": "Feature",
      "properties": {
        "norad_id": 38091,
        "name": "BEIDOU-2 G5 (C05)",
        "group": "gnss",
        "lat": -2.6529634957538413,
        "lon": -51.66117815892962,
        "alt_km": 35732.95575779187,
        "timestamp": "2025-12-17T10:52:54.595359+00:00",
        "meta_object_name": "BEIDOU-2 G5 (C05)",
        "meta_object_id": "2012-008A",
        "meta_epoch": "2025-12-16T15:20:55.893984",
        "meta_mean_motion": 1.00267602,
        "meta_eccentricity": 0.00130267,
        "meta_inclination": 3.1186,
        "meta_ra_of_asc_node": 70.7002,
        "meta_arg_of_pericenter": 231.2097,
        "meta_mean_anomaly": 72.6715,
        "meta_ephemeris_type": 0,
        "meta_classification_type": "U",
        "meta_norad_cat_id": 38091,
        "meta_element_set_no": 999,
        "meta_rev_at_epoch": 5053,
        "meta_bstar": 0,
        "meta_mean_motion_dot": 7.8e-07,
        "meta_mean_motion_ddot": 0,
        "tle_line1": "1 38091U 12008A   25350.63953581  .00000078  00000+0  00000+0 0  9990",
        "tle_line2": "2 38091   3.1186  70.7002 0013026 231.2097  72.6715  1.00267602 50539"
      },
      "geometry": {
        "type": "Point",
        "coordinates": [
          -51.66117815892962,
          -2.6529634957538413
        ]
      }
    },
    {
      "type": "Feature",
      "properties": {
        "norad_id": 38250,
        "name": "BEIDOU-2 M3 (C11)",
        "group": "gnss",
        "lat": -13.456242856010817,
        "lon": 140.2931187929737,
        "alt_km": 21516.312521313914,
        "timestamp": "2025-12-17T10:52:54.595372+00:00",
        "meta_object_name": "BEIDOU-2 M3 (C11)",
        "meta_object_id": "2012-018A",
        "meta_epoch": "2025-12-16T14:56:57.410880",
        "meta_mean_motion": 1.86229923,
        "meta_eccentricity": 0.00242949,
        "meta_inclination": 55.9166,
        "meta_ra_of_asc_node": 311.0263,
        "meta_arg_of_pericenter": 274.556,
        "meta_mean_anomaly": 85.1519,
        "meta_ephemeris_type": 0,
        "meta_classification_type": "U",
        "meta_norad_cat_id": 38250,
        "meta_element_set_no": 999,
        "meta_rev_at_epoch": 9254,
        "meta_bstar": 0,
        "meta_mean_motion_dot": -9.5e-07,
        "meta_mean_motion_ddot": 0,
        "tle_line1": "1 38250U 12018A   25350.62288670 -.00000095  00000+0  00000+0 0  9997",
        "tle_line2": "2 38250  55.9166 311.0263 0024294 274.5560  85.1519  1.86229923 92549"
      },
      "geometry": {
        "type": "Point",
        "coordinates": [
          140.2931187929737,
          -13.456242856010817
        ]
      }
    },
    {
      "type": "Feature",
      "properties": {
        "norad_id": 38251,
        "name": "BEIDOU-2 M4 (C12)",
        "group": "gnss",
        "lat": -46.992843957972624,
        "lon": 176.93170249249593,
        "alt_km": 21498.37349656173,
        "timestamp": "2025-12-17T10:52:54.595383+00:00",
        "meta_object_name": "BEIDOU-2 M4 (C12)",
        "meta_object_id": "2012-018B",
        "meta_epoch": "2025-12-13T07:59:48.422112",
        "meta_mean_motion": 1.86229462,
        "meta_eccentricity": 0.00154528,
        "meta_inclination": 55.8208,
        "meta_ra_of_asc_node": 310.3658,
        "meta_arg_of_pericenter": 277.4494,
        "meta_mean_anomaly": 82.3644,
        "meta_ephemeris_type": 0,
        "meta_classification_type": "U",
        "meta_norad_cat_id": 38251,
        "meta_element_set_no": 999,
        "meta_rev_at_epoch": 9248,
        "meta_bstar": 0,
        "meta_mean_motion_dot": -9.5e-07,
        "meta_mean_motion_ddot": 0,
        "tle_line1": "1 38251U 12018B   25347.33319933 -.00000095  00000+0  00000+0 0  9999",
        "tle_line2": "2 38251  55.8208 310.3658 0015452 277.4494  82.3644  1.86229462 92489"
      },
      "geometry": {
        "type": "Point",
        "coordinates": [
          176.93170249249593,
          -46.992843957972624
        ]
      }
    },
    {
      "type": "Feature",
      "properties": {
        "norad_id": 38652,
        "name": "SES-5 (EGNOS/PRN 136)",
        "group": "gnss",
        "lat": -0.06695242750215083,
        "lon": -105.47360844204069,
        "alt_km": 35777.93092480078,
        "timestamp": "2025-12-17T10:52:54.595395+00:00",
        "meta_object_name": "SES-5 (EGNOS/PRN 136)",
        "meta_object_id": "2012-036A",
        "meta_epoch": "2025-12-16T18:31:01.419744",
        "meta_mean_motion": 1.00272275,
        "meta_eccentricity": 0.00019226,
        "meta_inclination": 0.0586,
        "meta_ra_of_asc_node": 304.6085,
        "meta_arg_of_pericenter": 321.5573,
        "meta_mean_anomaly": 102.2321,
        "meta_ephemeris_type": 0,
        "meta_classification_type": "U",
        "meta_norad_cat_id": 38652,
        "meta_element_set_no": 999,
        "meta_rev_at_epoch": 4262,
        "meta_bstar": 0,
        "meta_mean_motion_dot": 5.8e-07,
        "meta_mean_motion_ddot": 0,
        "tle_line1": "1 38652U 12036A   25350.77154421  .00000058  00000+0  00000+0 0  9993",
        "tle_line2": "2 38652   0.0586 304.6085 0001922 321.5573 102.2321  1.00272275 42622"
      },
      "geometry": {
        "type": "Point",
        "coordinates": [
          -105.47360844204069,
          -0.06695242750215083
        ]
      }
    },
    {
      "type": "Feature",
      "properties": {
        "norad_id": 38775,
        "name": "BEIDOU-2 M6 (C14)",
        "group": "gnss",
        "lat": 54.03166809642684,
        "lon": 135.17354062728776,
        "alt_km": 21523.234196336907,
        "timestamp": "2025-12-17T10:52:54.595407+00:00",
        "meta_object_name": "BEIDOU-2 M6 (C14)",
        "meta_object_id": "2012-050B",
        "meta_epoch": "2025-12-16T06:22:47.654112",
        "meta_mean_motion": 1.86230757,
        "meta_eccentricity": 0.00113185,
        "meta_inclination": 56.3814,
        "meta_ra_of_asc_node": 68.9504,
        "meta_arg_of_pericenter": 343.5807,
        "meta_mean_anomaly": 16.4038,
        "meta_ephemeris_type": 0,
        "meta_classification_type": "U",
        "meta_norad_cat_id": 38775,
        "meta_element_set_no": 999,
        "meta_rev_at_epoch": 8990,
        "meta_bstar": 0,
        "meta_mean_motion_dot": -8e-07,
        "meta_mean_motion_ddot": 0,
        "tle_line1": "1 38775U 12050B   25350.26582933 -.00000080  00000+0  00000+0 0  9998",
        "tle_line2": "2 38775  56.3814  68.9504 0011318 343.5807  16.4038  1.86230757 89902"
      },
      "geometry": {
        "type": "Point",
        "coordinates": [
          135.17354062728776,
          54.03166809642684
        ]
      }
    },
    {
      "type": "Feature",
      "properties": {
        "norad_id": 38779,
        "name": "GSAT-10 (GAGAN/PRN 128)",
        "group": "gnss",
        "lat": 0.06670525803482377,
        "lon": -27.447335235986753,
        "alt_km": 35795.203071569755,
        "timestamp": "2025-12-17T10:52:54.595419+00:00",
        "meta_object_name": "GSAT-10 (GAGAN/PRN 128)",
        "meta_object_id": "2012-051B",
        "meta_epoch": "2025-12-16T20:21:22.426272",
        "meta_mean_motion": 1.00272767,
        "meta_eccentricity": 0.00024936,
        "meta_inclination": 0.0804,
        "meta_ra_of_asc_node": 265.9242,
        "meta_arg_of_pericenter": 220.0533,
        "meta_mean_anomaly": 348.1176,
        "meta_ephemeris_type": 0,
        "meta_classification_type": "U",
        "meta_norad_cat_id": 38779,
        "meta_element_set_no": 999,
        "meta_rev_at_epoch": 4827,
        "meta_bstar": 0,
        "meta_mean_motion_dot": -1.41e-06,
        "meta_mean_motion_ddot": 0,
        "tle_line1": "1 38779U 12051B   25350.84817623 -.00000141  00000+0  00000+0 0  9992",
        "tle_line2": "2 38779   0.0804 265.9242 0002493 220.0533 348.1176  1.00272767 48274"
      },
      "geometry": {
        "type": "Point",
        "coordinates": [
          -27.447335235986753,
          0.06670525803482377
        ]
      }
    },
    {
      "type": "Feature",
      "properties": {
        "norad_id": 38833,
        "name": "GPS BIIF-3  (PRN 24)",
        "group": "gnss",
        "lat": 53.31004511879325,
        "lon": -126.22995961686414,
        "alt_km": 19740.27997007991,
        "timestamp": "2025-12-17T10:52:54.595432+00:00",
        "meta_object_name": "GPS BIIF-3  (PRN 24)",
        "meta_object_id": "2012-053A",
        "meta_epoch": "2025-12-15T20:13:20.824032",
        "meta_mean_motion": 2.00565066,
        "meta_eccentricity": 0.01759247,
        "meta_inclination": 53.5583,
        "meta_ra_of_asc_node": 151.1115,
        "meta_arg_of_pericenter": 64.0399,
        "meta_mean_anomaly": 297.7616,
        "meta_ephemeris_type": 0,
        "meta_classification_type": "U",
        "meta_norad_cat_id": 38833,
        "meta_element_set_no": 999,
        "meta_rev_at_epoch": 9576,
        "meta_bstar": 0,
        "meta_mean_motion_dot": 8e-07,
        "meta_mean_motion_ddot": 0,
        "tle_line1": "1 38833U 12053A   25349.84260213  .00000080  00000+0  00000+0 0  9991",
        "tle_line2": "2 38833  53.5583 151.1115 0175924  64.0399 297.7616  2.00565066 95765"
      },
      "geometry": {
        "type": "Point",
        "coordinates": [
          -126.22995961686414,
          53.31004511879325
        ]
      }
    }
  ]
}